[{"OBJECT_NAME":"SENTINEL-5P","OBJECT_ID":"2017-064A","EPOCH":"2026-03-09T19:35:06.853056","MEAN_MOTION":14.19549302,"ECCENTRICITY":0.00010631,"INCLINATION":98.7881,"RA_OF_ASC_NODE":11.6741,"ARG_OF_PERICENTER":80.585,"MEAN_ANOMALY":279.5446,"EPHEMERIS_TYPE":0,"CLASSIFICATION_TYPE":"U","NORAD_CAT_ID":42969,"ELEMENT_SET_NO":999,"REV_AT_EPOCH":43546,"BSTAR":7.6086876e-5,"MEAN_MOTION_DOT":1.16e-6,"MEAN_MOTION_DDOT":0},{"OBJECT_NAME":"SL-16 DEB","OBJECT_ID":"1992-093CD","EPOCH":"2026-03-09T16:26:18.364992","MEAN_MOTION":14.18040196,"ECCENTRICITY":0.00932024,"INCLINATION":70.9649,"RA_OF_ASC_NODE":41.9589,"ARG_OF_PERICENTER":43.058,"MEAN_ANOMALY":9.8269,"EPHEMERIS_TYPE":0,"CLASSIFICATION_TYPE":"U","NORAD_CAT_ID":22388,"ELEMENT_SET_NO":999,"REV_AT_EPOCH":69830,"BSTAR":0.0014629758,"MEAN_MOTION_DOT":3.084e-5,"MEAN_MOTION_DDOT":0}]
